satname,norad_id,inclination_deg,eccentricity,mean_motion_rev_per_day,perigee_km,apogee_km,l1,l2
STARLINK-1008,44714,53.0529,0.0001284,15.06402152,546.3157484681051,548.094176284043,1 44714U 19074B   25286.54751015 -.00000349  00000+0 -45140-5 0  9998,2 44714  53.0529 127.1647 0001284  89.2544 270.8592 15.06402152326573
STARLINK-1010,44716,53.0465,0.0002613,15.87760025,306.817202514103,310.3116726853932,1 44716U 19074D   25286.66667824  .00315260  00000+0  11115-2 0  9998,2 44716  53.0465  63.1691 0002613  83.7318 210.5062 15.87760025  6019
STARLINK-1011,44717,53.0492,0.0004429,15.76854794,336.3831452468048,342.333502604738,1 44717U 19074E   25286.66667824  .00151887  00000+0  90996-3 0  9997,2 44717  53.0492 118.7044 0004429 153.1472 185.1228 15.76854794  5991
STARLINK-1012,44718,53.0532,0.0001677,15.06385066,546.0959402465687,548.4187175044735,1 44718U 19074F   25286.59176116 -.00002321  00000+0 -13704-3 0  9991,2 44718  53.0532 126.9673 0001677  96.5533 263.5647 15.06385066326576
STARLINK-1017,44723,53.0512,0.000503,15.13117874,523.2253233611582,530.1715878294872,1 44723U 19074L   25286.59033963  .00039394  00000+0  22027-2 0  9994,2 44723  53.0512 124.5226 0005030 120.2529 239.8961 15.13117874326613
STARLINK-1019,44724,53.0538,0.0001738,15.06402405,546.0005626711727,548.4078112677626,1 44724U 19074M   25286.58805082 -.00000206  00000+0  51006-5 0  9996,2 44724  53.0538 126.9851 0001738  94.3783 265.7405 15.06402405326571
STARLINK-1020,44725,53.0522,0.0001315,15.06399427,546.3026305350031,548.1239976676115,1 44725U 19074N   25286.65993329  .00000336  00000+0  41444-4 0  9994,2 44725  53.0522 146.6626 0001315  92.0521 268.0618 15.06399427326302
STARLINK-1029,44734,53.0463,0.0005333,16.12883154,235.41693565481455,242.47471619694716,1 44734U 19074X   25286.58886291  .01031517  67829-3  88537-3 0  9990,2 44734  53.0463 338.3171 0005333  17.6329 342.4890 16.12883154328634
STARLINK-1031,44736,53.0518,0.0009359,15.42868076,431.27062638690677,444.0284155968993,1 44736U 19074Z   25286.55687108  .00116154  00000+0  25731-2 0  9995,2 44736  53.0518 121.3835 0009359 128.0595 232.1255 15.42868076326667
STARLINK-1036,44741,53.0552,0.0001868,15.06401593,545.9130214284069,548.5003298256215,1 44741U 19074AE  25286.35768224 -.00003471  00000+0 -21421-3 0  9990,2 44741  53.0552 148.0185 0001868  96.4883 263.6319 15.06401593326263
STARLINK-1039,44744,53.0494,0.0007213,15.11318879,527.1923965657252,537.1612152621365,1 44744U 19074AH  25285.96292022  .00044717  00000+0  26235-2 0  9990,2 44744  53.0494 168.4846 0007213  86.4013 273.7803 15.11318879325949
STARLINK-1042,44747,53.0469,0.0003297,15.42103942,437.652972820114,442.1487869981256,1 44747U 19074AL  25286.12651622  .00028732  00000+0  66835-3 0  9997,2 44747  53.0469  78.6446 0003297  79.0181 281.1194 15.42103942327242
STARLINK-1043,44748,53.0504,0.0001823,15.06398233,545.9544815147001,548.479465573454,1 44748U 19074AM  25286.39639162  .00003212  00000+0  23448-3 0  9991,2 44748  53.0504 167.8459 0001823  82.8305 277.2891 15.06398233325990
STARLINK-1046,44751,53.0519,0.0003752,15.06406753,544.592478029741,549.7892440566675,1 44751U 19074AQ  25286.41114942  .00010845  00000+0  74567-3 0  9990,2 44751  53.0519 167.7789 0003752  83.6107 276.5309 15.06406753325990
STARLINK-1047,44752,53.0709,0.0005105,15.28713815,476.1552411790308,483.15704797964736,1 44752U 19074AR  25286.58749508  .00014295  00000+0  51665-3 0  9998,2 44752  53.0709 111.2260 0005105 116.2672 243.8852 15.28713815326810
STARLINK-1048,44753,53.0523,0.0001346,15.06406081,546.2607712044828,548.1250700191122,1 44753U 19074AS  25286.56962501  .00001665  00000+0  13062-3 0  9993,2 44753  53.0523 127.0663 0001346  86.8701 273.2442 15.06406081326570
STARLINK-1053,44758,53.0411,9.01e-05,15.57938095,393.01523913707933,394.2355107170406,1 44758U 19074AX  25285.95257477  .00065938  00000+0  86556-3 0  9990,2 44758  53.0411  95.1346 0000901 150.7650 209.3412 15.57938095326987
STARLINK-1054,44759,53.0398,0.0005106,15.77751586,333.3839522415692,340.24125877871575,1 44759U 19074AY  25286.66667824  .00306655  00000+0  17297-2 0  9990,2 44759  53.0398 118.8795 0005106 121.7082 125.3583 15.77751586  6028
STARLINK-1056,44761,53.0384,0.0003022,15.90253054,299.5555371241435,303.59275454068484,1 44761U 19074BA  25286.66667824  .00336926  53134-4  10950-2 0  9997,2 44761  53.0384 106.2979 0003022 122.3487 263.3983 15.90253054  6009
STARLINK-1060,44765,53.0548,7.43e-05,15.59501807,388.5951164637345,389.6007275731463,1 44765U 19074BE  25286.66667824 -.00053457  00000+0 -65994-3 0  9996,2 44765  53.0548 138.0037 0000743  92.4131  66.9682 15.59501807  5855
STARLINK-1063,44768,53.0534,0.0001384,15.06396094,546.2650593943235,548.1819991888315,1 44768U 19074BH  25286.40007096 -.00002041  00000+0 -11821-3 0  9993,2 44768  53.0534 167.8287 0001384  89.9186 270.1962 15.06396094326008
STARLINK-1067,44771,53.0509,0.0002105,15.06384649,545.8008111666113,548.7164027171339,1 44771U 19074BL  25286.65442224  .00000626  00000+0  60938-4 0  9999,2 44771  53.0509 166.6870 0002105  92.5196 267.6034 15.06384649326039
STARLINK-1068,44772,53.0508,0.00015,15.06399237,546.1750937899087,548.2526990588367,1 44772U 19074BM  25286.57883940  .00001088  00000+0  91941-4 0  9996,2 44772  53.0508 147.0248 0001500  87.4589 272.6571 15.06399237326297
STARLINK-1112,44925,53.051,0.000209,15.50714441,413.2192113692345,416.0585916960745,1 44925U 20001M   25286.66667824  .00164865  00000+0  27691-2 0  9991,2 44925  53.0510 250.3128 0002090  95.4795  76.9294 15.50714441  5960
STARLINK-1114,44927,53.0539,0.0001517,15.06401598,546.1560856694941,548.2572349360289,1 44927U 20001P   25286.28581553  .00002885  00000+0  21250-3 0  9994,2 44927  53.0539 288.3431 0001517  91.8083 268.3080 15.06401598317631
STARLINK-1123,44930,53.0541,0.0001547,15.06402608,546.1322146200555,548.2749149908059,1 44930U 20001S   25286.30055168  .00000623  00000+0  60728-4 0  9991,2 44930  53.0541 288.2732 0001547  79.5020 280.6143 15.06402608317638
STARLINK-1144,44933,53.0447,0.0012991,15.55580374,391.65999507102697,409.27216158914507,1 44933U 20001V   25286.66667824  .00018314  00000+0  26819-3 0  9999,2 44933  53.0447 227.9972 0012991  31.9027 181.3972 15.55580374  5986
STARLINK-1091,44940,53.0384,0.000278,15.88524749,304.55995066531705,308.2765633882236,1 44940U 20001AC  25286.66667824  .00433984  00000+0  14525-2 0  9991,2 44940  53.0384 208.8483 0002780 111.8637 131.3644 15.88524749  6004
STARLINK-1094,44941,53.0537,0.0001203,15.06394505,546.3952779155034,548.0615208305935,1 44941U 20001AD  25286.24710445  .00000793  00000+0  72118-4 0  9996,2 44941  53.0537 268.5137 0001203  84.9938 275.1189 15.06394505317907
STARLINK-1096,44942,52.9906,0.0004968,15.82943906,318.7917751180612,325.44915093332384,1 44942U 20001AE  25286.66667824  .00264090  00000+0  11809-2 0  9995,2 44942  52.9906  35.7950 0004968 336.5284 309.6243 15.82943906  5956
STARLINK-1122,44949,53.0548,0.0001563,15.0639272,546.1514347126122,548.316305646631,1 44949U 20001AM  25286.26923295  .00000807  00000+0  73107-4 0  9990,2 44949  53.0548 268.4112 0001563  89.8642 270.2526 15.06392720317902
STARLINK-1080,44961,53.0552,0.0001688,15.06403026,546.0332864285374,548.371280970714,1 44961U 20001AZ  25286.59911580  .00002291  00000+0  17267-3 0  9997,2 44961  53.0552 246.9348 0001688  88.9057 271.2125 15.06403026318247
STARLINK-1090,44968,53.0546,0.0001373,15.06397092,546.2696189730787,548.1713221344935,1 44968U 20001BG  25286.60279956  .00000169  00000+0  30255-4 0  9995,2 44968  53.0546 246.9199 0001373  89.0057 271.1090 15.06397092318249
STARLINK-1107,44972,53.01,0.0007162,15.62074022,376.82559063099234,386.5083338264885,1 44972U 20001BL  25286.66667824  .00192326  00000+0  21100-2 0  9995,2 44972  53.0100 168.6725 0007162 149.8015 180.6512 15.62074022  5946
STARLINK-1132,45044,53.0561,0.0001499,15.06398761,546.1772449793725,548.2534656154903,1 45044U 20006A   25286.49590974  .00000910  00000+0  80009-4 0  9995,2 45044  53.0561 207.3958 0001499  85.0068 275.1092 15.06398761314553
STARLINK-1131,45047,53.0548,0.0001527,15.06398851,546.1575781974962,548.2725807225625,1 45047U 20006D   25286.53836281 -.00000215  00000+0  44396-5 0  9996,2 45047  53.0548 227.7476 0001527  89.0452 271.0712 15.06398851314278
STARLINK-1134,45048,53.0363,0.0011722,15.2578746,480.37287960479716,496.47084019594786,1 45048U 20006E   25286.08605815  .00036295  00000+0  14059-2 0  9990,2 45048  53.0363 210.2092 0011722  84.8239 275.4096 15.25787460314484
STARLINK-1156,45054,53.0528,0.0001797,15.06402123,545.960567290077,548.449535223298,1 45054U 20006L   25286.57515067  .00012252  00000+0  83991-3 0  9999,2 45054  53.0528 227.0419 0001797 104.5821 255.5367 15.06402123314288
STARLINK-1159,45057,53.0556,0.000206,15.06393667,545.8043419378037,548.6575935405126,1 45057U 20006P   25286.12547079 -.00002156  00000+0 -12591-3 0  9993,2 45057  53.0556 229.0598 0002060  98.5632 261.5590 15.06393667314229
STARLINK-1166,45060,53.0534,0.0001442,15.06396495,546.2236634681931,548.2209370903938,1 45060U 20006S   25286.53460865  .00007757  00000+0  53909-3 0  9997,2 45060  53.0534 227.2252 0001442  84.4979 275.6174 15.06396495314289
STARLINK-1169,45061,53.0538,0.0001049,15.06389793,546.5163687545091,547.9693134451709,1 45061U 20006T   25286.54197614 -.00002529  00000+0 -15101-3 0  9994,2 45061  53.0538 227.1904 0001049  93.6297 266.4812 15.06389793314285
STARLINK-1171,45062,53.0541,0.0001341,15.11726414,530.0083104189698,531.861323480276,1 45062U 20006U   25286.66667824  .01028962  00000+0  55368-1 0  9998,2 45062  53.0541 226.5763 0001341  95.5255 327.7953 15.11726414  5652
STARLINK-1133,45064,53.0544,0.0001331,15.06399613,546.2909799868621,548.1345080887249,1 45064U 20006W   25286.07570413 -.00005628  00000+0 -35921-3 0  9992,2 45064  53.0544 209.2817 0001331  99.7711 260.3428 15.06399613314492
